NORAD_CAT_ID,OBJECT_NAME,OBJECT_TYPE,EPOCH,MEAN_MOTION,ECCENTRICITY,INCLINATION,RA_OF_ASC_NODE,ARG_OF_PERICENTER,MEAN_ANOMALY,BSTAR,MEAN_MOTION_DOT,MEAN_MOTION_DDOT,TLE_LINE0,TLE_LINE1,TLE_LINE2,SEMIMAJOR_AXIS,PERIOD,APOGEE,PERIGEE,DECAYED
55747.0,STARLINK-5539,PAYLOAD,2024-06-16 08:59:40,14.98337767,0.0003069,70.0016,36.2931,271.0062,89.0746,0.00010039,1.105e-05,0.0,0 STARLINK-5539,1 55747U 23028G   24168.37477060  .00001105  00000-0  10039-3 0  9991,2 55747  70.0016  36.2931 0003069 271.0062  89.0746 14.98337767 71472,6950.169,96.107,574.167,569.901,0.0
55747.0,STARLINK-5539,PAYLOAD,2024-06-16 21:48:45,14.98324281,0.0002995,70.0001,34.9454,266.2928,93.7889,-3.5274e-05,-5.14e-06,0.0,0 STARLINK-5539,1 55747U 23028G   24168.90886294 -.00000514  00000-0 -35274-4 0  9997,2 55747  70.0001  34.9454 0002995 266.2928  93.7889 14.98324281 71551,6950.211,96.107,574.157,569.994,0.0
55747.0,STARLINK-5539,PAYLOAD,2024-06-17 20:14:38,14.983293,0.0002923,70.0002,32.5878,264.4118,95.6708,8.3447e-06,7e-08,0.0,0 STARLINK-5539,1 55747U 23028G   24169.84350025  .00000007  00000-0  83447-5 0  9990,2 55747  70.0002  32.5878 0002923 264.4118  95.6708 14.98329300 71691,6950.195,96.107,574.092,570.029,0.0
55747.0,STARLINK-5539,PAYLOAD,2024-06-17 21:50:46,14.98340417,0.0003124,69.9999,32.4208,267.3506,92.7296,-0.00014053,-1.77e-05,0.0,0 STARLINK-5539,1 55747U 23028G   24169.91025584 -.00001770  00000-0 -14053-3 0  9992,2 55747  69.9999  32.4208 0003124 267.3506  92.7296 14.98340417 71700,6950.161,96.106,574.197,569.854,0.0
55747.0,STARLINK-5539,PAYLOAD,2024-06-18 01:03:02,14.98340865,0.0003092,69.9997,32.0844,266.6481,93.4324,-0.00012799,-1.62e-05,0.0,0 STARLINK-5539,1 55747U 23028G   24170.04377463 -.00001620  00000-0 -12799-3 0  9993,2 55747  69.9997  32.0844 0003092 266.6481  93.4324 14.98340865 71727,6950.159,96.106,574.173,569.875,0.0
55747.0,STARLINK-5539,PAYLOAD,2024-06-18 18:40:29,14.98337283,0.0003146,69.9997,30.2323,265.3332,94.7467,0.00033652,3.925e-05,0.0,0 STARLINK-5539,1 55747U 23028G   24170.77812480  .00003925  00000-0  33652-3 0  9995,2 55747  69.9997  30.2323 0003146 265.3332  94.7467 14.98337283 71834,6950.17,96.107,574.222,569.849,0.0
55747.0,STARLINK-5539,PAYLOAD,2024-06-19 01:05:02,14.98347915,0.0003225,70.001,29.5588,266.8107,93.2683,0.00051357,6.043e-05,0.0,0 STARLINK-5539,1 55747U 23028G   24171.04516462  .00006043  00000-0  51357-3 0  9993,2 55747  70.0010  29.5588 0003225 266.8107  93.2683 14.98347915 71872,6950.137,96.106,574.244,569.761,0.0
55747.0,STARLINK-5539,PAYLOAD,2024-06-19 07:29:35,14.9833456,0.0002139,70.0038,28.8821,281.3094,78.7825,0.00022371,2.578e-05,0.0,0 STARLINK-5539,1 55747U 23028G   24171.31221375  .00002578  00000-0  22371-3 0  9992,2 55747  70.0038  28.8821 0002139 281.3094  78.7825 14.98334560 71917,6950.179,96.107,573.53,570.557,0.0
55747.0,STARLINK-5539,PAYLOAD,2024-06-19 20:18:40,14.98323575,0.0003255,70.0009,27.5383,272.2414,87.8372,-0.00018192,-2.263e-05,0.0,0 STARLINK-5539,1 55747U 23028G   24171.84629707 -.00002263  00000-0 -18192-3 0  9990,2 55747  70.0009  27.5383 0003255 272.2414  87.8372 14.98323575 71999,6950.213,96.107,574.34,569.815,0.0
55747.0,STARLINK-5539,PAYLOAD,2024-06-19 21:54:48,14.98323225,0.0002745,70.0026,27.3728,259.0663,101.0188,-0.00018895,-2.346e-05,0.0,0 STARLINK-5539,1 55747U 23028G   24171.91305705 -.00002346  00000-0 -18895-3 0  9999,2 55747  70.0026  27.3728 0002745 259.0663 101.0188 14.98323225 72000,6950.214,96.107,573.987,570.171,0.0
55747.0,STARLINK-5539,PAYLOAD,2024-06-20 13:56:08,14.98335816,0.0003091,70.0,25.6894,261.4353,98.6455,-5.4844e-05,-7.47e-06,0.0,0 STARLINK-5539,1 55747U 23028G   24172.58065547 -.00000747  00000-0 -54844-4 0  9998,2 55747  70.0000  25.6894 0003091 261.4353  98.6455 14.98335816 72103,6950.175,96.107,574.188,569.892,0.0
55747.0,STARLINK-5539,PAYLOAD,2024-06-20 21:56:48,14.98334708,0.0002938,70.0004,24.8471,260.6994,99.3833,-4.234e-05,-5.98e-06,0.0,0 STARLINK-5539,1 55747U 23028G   24172.91445509 -.00000598  00000-0 -42340-4 0  9997,2 55747  70.0004  24.8471 0002938 260.6994  99.3833 14.98334708 72152,6950.178,96.107,574.085,570.001,0.0
55747.0,STARLINK-5539,PAYLOAD,2024-06-20 23:32:57,14.98334015,0.0002949,70.0004,24.6787,260.8766,99.2059,-4.5217e-05,-6.33e-06,0.0,0 STARLINK-5539,1 55747U 23028G   24172.98121538 -.00000633  00000-0 -45217-4 0  9993,2 55747  70.0004  24.6787 0002949 260.8766  99.2059 14.98334015 72162,6950.18,96.107,574.095,569.996,0.0
55747.0,STARLINK-5539,PAYLOAD,2024-06-21 01:09:05,14.98335046,0.0002967,70.0003,24.5098,268.9901,91.0918,-3.921e-05,-5.61e-06,0.0,0 STARLINK-5539,1 55747U 23028G   24173.04797490 -.00000561  00000-0 -39210-4 0  9993,2 55747  70.0003  24.5098 0002967 268.9901  91.0918 14.98335046 72175,6950.177,96.107,574.104,569.98,0.0
55747.0,STARLINK-5539,PAYLOAD,2024-06-21 21:58:49,14.98331159,0.0003158,69.9998,22.3207,268.5043,91.5755,0.00026431,3.062e-05,0.0,0 STARLINK-5539,1 55747U 23028G   24173.91585468  .00003062  00000-0  26431-3 0  9996,2 55747  69.9998  22.3207 0003158 268.5043  91.5755 14.98331159 72309,6950.189,96.107,574.249,569.859,0.0
55747.0,STARLINK-5539,PAYLOAD,2024-06-21 23:34:57,14.98332218,0.0003156,69.9998,22.1524,268.4689,91.6109,0.00027946,3.243e-05,0.0,0 STARLINK-5539,1 55747U 23028G   24173.98261442  .00003243  00000-0  27946-3 0  9999,2 55747  69.9998  22.1524 0003156 268.4689  91.6109 14.98332218 72314,6950.186,96.107,574.245,569.858,0.0
55747.0,STARLINK-5539,PAYLOAD,2024-06-22 14:00:10,14.98332547,0.0003089,70.0011,20.6379,269.0369,91.0436,0.00014326,1.617e-05,0.0,0 STARLINK-5539,1 55747U 23028G   24174.58345624  .00001617  00000-0  14326-3 0  9992,2 55747  70.0011  20.6379 0003089 269.0369  91.0436 14.98332547 72403,6950.185,96.107,574.197,569.903,0.0
55747.0,STARLINK-5539,PAYLOAD,2024-06-22 20:24:43,14.98331494,0.0003112,70.0,19.9641,267.9476,92.1327,0.00012551,1.405e-05,0.0,0 STARLINK-5539,1 55747U 23028G   24174.85049769  .00001405  00000-0  12551-3 0  9996,2 55747  70.0000  19.9641 0003112 267.9476  92.1327 14.98331494 72442,6950.188,96.107,574.216,569.89,0.0
55747.0,STARLINK-5539,PAYLOAD,2024-06-22 22:00:51,14.98332103,0.0003104,70.0,19.7958,267.9233,92.1571,0.00012818,1.437e-05,0.0,0 STARLINK-5539,1 55747U 23028G   24174.91725709  .00001437  00000-0  12818-3 0  9999,2 55747  70.0000  19.7958 0003104 267.9233  92.1571 14.98332103 72453,6950.186,96.107,574.209,569.894,0.0
55747.0,STARLINK-5539,PAYLOAD,2024-06-23 14:02:11,14.98334266,0.0003136,69.9999,18.1125,271.8804,88.1996,8.8053e-05,9.58e-06,0.0,0 STARLINK-5539,1 55747U 23028G   24175.58485549  .00000958  00000-0  88053-4 0  9990,2 55747  69.9999  18.1125 0003136 271.8804  88.1996 14.98334266 72558,6950.18,96.107,574.224,569.865,0.0
55747.0,STARLINK-5539,PAYLOAD,2024-06-23 20:26:43,14.98335278,0.0003126,69.9999,17.439,271.7589,88.3212,8.6076e-05,9.34e-06,0.0,0 STARLINK-5539,1 55747U 23028G   24175.85189382  .00000934  00000-0  86076-4 0  9993,2 55747  69.9999  17.4390 0003126 271.7589  88.3212 14.98335278 72593,6950.177,96.107,574.214,569.869,0.0
55747.0,STARLINK-5539,PAYLOAD,2024-06-23 22:02:51,14.9833635,0.0003113,70.0,17.2707,271.8158,88.2645,9.6592e-05,1.06e-05,0.0,0 STARLINK-5539,1 55747U 23028G   24175.91865264  .00001060  00000-0  96592-4 0  9995,2 55747  70.0000  17.2707 0003113 271.8158  88.2645 14.98336350 72601,6950.173,96.107,574.202,569.875,0.0
55747.0,STARLINK-5539,PAYLOAD,2024-06-24 14:04:12,14.98332401,0.0003036,70.0003,15.5875,273.7027,86.3785,0.00012436,1.391e-05,0.0,0 STARLINK-5539,1 55747U 23028G   24176.58625353  .00001391  00000-0  12436-3 0  9993,2 55747  70.0003  15.5875 0003036 273.7027  86.3785 14.98332401 72709,6950.185,96.107,574.161,569.94,0.0
55747.0,STARLINK-5539,PAYLOAD,2024-06-24 20:28:44,14.98332341,0.0003069,70.0002,14.9141,272.7445,87.3363,0.00010902,1.208e-05,0.0,0 STARLINK-5539,1 55747U 23028G   24176.85329349  .00001208  00000-0  10902-3 0  9992,2 55747  70.0002  14.9141 0003069 272.7445  87.3363 14.98332341 72746,6950.186,96.107,574.184,569.918,0.0
55747.0,STARLINK-5539,PAYLOAD,2024-06-25 14:06:13,14.9833374,0.0002942,70.0005,13.0637,261.6657,98.4168,7.5029e-05,8.02e-06,0.0,0 STARLINK-5539,1 55747U 23028G   24177.58765191  .00000802  00000-0  75029-4 0  9993,2 55747  70.0005  13.0637 0002942 261.6657  98.4168 14.98333740 72852,6950.181,96.107,574.091,570.002,0.0
55747.0,STARLINK-5539,PAYLOAD,2024-06-25 20:30:45,14.98333685,0.0002953,70.0005,12.3904,262.4364,97.646,6.1637e-05,6.43e-06,0.0,0 STARLINK-5539,1 55747U 23028G   24177.85469137  .00000643  00000-0  61637-4 0  9997,2 55747  70.0005  12.3904 0002953 262.4364  97.6460 14.98333685 72895,6950.181,96.107,574.099,569.994,0.0
55747.0,STARLINK-5539,PAYLOAD,2024-06-25 22:06:53,14.9833404,0.0002952,70.0006,12.2221,263.0814,97.0009,6.2786e-05,6.56e-06,0.0,0 STARLINK-5539,1 55747U 23028G   24177.92145094  .00000656  00000-0  62786-4 0  9998,2 55747  70.0006  12.2221 0002952 263.0814  97.0009 14.98334040 72904,6950.18,96.107,574.097,569.994,0.0
55747.0,STARLINK-5539,PAYLOAD,2024-06-27 06:09:34,14.98331652,0.0002972,70.0007,8.8546,273.9753,86.1067,5.5942e-05,5.75e-06,0.0,0 STARLINK-5539,1 55747U 23028G   24179.25665380  .00000575  00000-0  55942-4 0  9997,2 55747  70.0007   8.8546 0002972 273.9753  86.1067 14.98331652 73102,6950.188,96.107,574.118,569.987,0.0
55747.0,STARLINK-5539,PAYLOAD,2024-06-27 22:10:55,14.98329591,0.0003126,70.0,7.1698,271.0357,89.0444,3.6096e-05,3.38e-06,0.0,0 STARLINK-5539,1 55747U 23028G   24179.92425506  .00000338  00000-0  36096-4 0  9991,2 55747  70.0000   7.1698 0003126 271.0357  89.0444 14.98329591 73207,6950.194,96.107,574.232,569.887,0.0
55747.0,STARLINK-5539,PAYLOAD,2024-06-28 06:11:35,14.98333267,0.0003144,70.0001,6.3284,271.0655,89.0144,7.7451e-05,8.31e-06,0.0,0 STARLINK-5539,1 55747U 23028G   24180.25805221  .00000831  00000-0  77451-4 0  9993,2 55747  70.0001   6.3284 0003144 271.0655  89.0144 14.98333267 73258,6950.183,96.107,574.233,569.863,0.0
